{"type": "FeatureCollection", "features": [ {"type": "Feature", "properties": {"norad_id": 67070, "name": "DEAR-5", "group": "last-30-days", "lat": -26.806736173004154, "lon": -122.26178411811597, "alt_km": 518.7657137028791, "timestamp": "2025-12-26T13:39:17.668351+00:00", "meta": {"OBJECT_NAME": "DEAR-5", "OBJECT_ID": "2025-296B", "EPOCH": "2025-12-23T23:03:08.623008", "MEAN_MOTION": 15.16917161, "ECCENTRICITY": 0.0016166, "INCLINATION": 41.3551, "RA_OF_ASC_NODE": 37.5614, "ARG_OF_PERICENTER": 107.8349, "MEAN_ANOMALY": 252.4237, "EPHEMERIS_TYPE": 0, "CLASSIFICATION_TYPE": "U", "NORAD_CAT_ID": 67070, "ELEMENT_SET_NO": 999, "REV_AT_EPOCH": 165, "BSTAR": 0.0002755, "MEAN_MOTION_DOT": 5.352e-05, "MEAN_MOTION_DDOT": 0}, "tle": {"line1": "1 67070U 25296B   25357.96051647  .00005352  00000+0  27550-3 0  9990", "line2": "2 67070  41.3551  37.5614 0016166 107.8349 252.4237 15.16917161  1654"}}, "geometry": {"type": "Point", "coordinates": [-122.26178411811597, -26.806736173004154]}}, {"type": "Feature", "properties": {"norad_id": 67071, "name": "KZ-11 R/B", "group": "last-30-days", "lat": -35.046637172758786, "lon": -30.42108228971896, "alt_km": 254.17496323539945, "timestamp": "2025-12-26T13:39:17.668361+00:00", "meta": {"OBJECT_NAME": "KZ-11 R/B", "OBJECT_ID": "2025-296C", "EPOCH": "2025-12-24T07:54:11.602080", "MEAN_MOTION": 15.73894626, "ECCENTRICITY": 0.03315074, "INCLINATION": 41.3001, "RA_OF_ASC_NODE": 37.0775, "ARG_OF_PERICENTER": 35.4688, "MEAN_ANOMALY": 326.7718, "EPHEMERIS_TYPE": 0, "CLASSIFICATION_TYPE": "U", "NORAD_CAT_ID": 67071, "ELEMENT_SET_NO": 999, "REV_AT_EPOCH": 169, "BSTAR": 0.00038975112, "MEAN_MOTION_DOT": 0.10609436, "MEAN_MOTION_DDOT": 7.766669e-06}, "tle": {"line1": "1 67071U 25296C   25358.32930095  .10609436  77667-5  38975-3 0  9991", "line2": "2 67071  41.3001  37.0775 0331507  35.4688 326.7718 15.73894626  1695"}}, "geometry": {"type": "Point", "coordinates": [-30.42108228971896, -35.046637172758786]}}, {"type": "Feature", "properties": {"norad_id": 67073, "name": "RAISE-4", "group": "last-30-days", "lat": -31.14226082219939, "lon": 152.3020307205872, "alt_km": 546.6345224630331, "timestamp": "2025-12-26T13:39:17.668372+00:00", "meta": {"OBJECT_NAME": "RAISE-4", "OBJECT_ID": "2025-297B", "EPOCH": "2025-12-26T05:49:38.831520", "MEAN_MOTION": 15.07241062, "ECCENTRICITY": 0.00116575, "INCLINATION": 97.4854, "RA_OF_ASC_NODE": 147.4279, "ARG_OF_PERICENTER": 270.097, "MEAN_ANOMALY": 89.8922, "EPHEMERIS_TYPE": 0, "CLASSIFICATION_TYPE": "U", "NORAD_CAT_ID": 67073, "ELEMENT_SET_NO": 999, "REV_AT_EPOCH": 182, "BSTAR": 0.00036844967, "MEAN_MOTION_DOT": 5.5e-05, "MEAN_MOTION_DDOT": 0}, "tle": {"line1": "1 67073U 25297B   25360.24281055  .00005500  00000+0  36845-3 0  9999", "line2": "2 67073  97.4854 147.4279 0011657 270.0970  89.8922 15.07241062  1828"}}, "geometry": {"type": "Point", "coordinates": [152.3020307205872, -31.14226082219939]}}, {"type": "Feature", "properties": {"norad_id": 67074, "name": "ELECTRON KICK STAGE R/B", "group": "last-30-days", "lat": 22.715587116474712, "lon": 145.55409984037723, "alt_km": 506.3549713876655, "timestamp": "2025-12-26T13:39:17.668382+00:00", "meta": {"OBJECT_NAME": "ELECTRON KICK STAGE R/B", "OBJECT_ID": "2025-297C", "EPOCH": "2025-12-25T23:42:12.160800", "MEAN_MOTION": 15.60381011, "ECCENTRICITY": 0.01881795, "INCLINATION": 97.4815, "RA_OF_ASC_NODE": 148.0945, "ARG_OF_PERICENTER": 221.4493, "MEAN_ANOMALY": 137.2363, "EPHEMERIS_TYPE": 0, "CLASSIFICATION_TYPE": "U", "NORAD_CAT_ID": 67074, "ELEMENT_SET_NO": 999, "REV_AT_EPOCH": 184, "BSTAR": 0.0017982149, "MEAN_MOTION_DOT": 0.00359366, "MEAN_MOTION_DDOT": 3.7348159e-05}, "tle": {"line1": "1 67074U 25297C   25359.98764075  .00359366  37348-4  17982-2 0  9999", "line2": "2 67074  97.4815 148.0945 0188179 221.4493 137.2363 15.60381011  1844"}}, "geometry": {"type": "Point", "coordinates": [145.55409984037723, 22.715587116474712]}}, {"type": "Feature", "properties": {"norad_id": 67075, "name": "STARLINK-36230", "group": "last-30-days", "lat": -41.78843904062673, "lon": 49.65749039284187, "alt_km": 346.87095815665725, "timestamp": "2025-12-26T13:39:17.668392+00:00", "meta": {"OBJECT_NAME": "STARLINK-36230", "OBJECT_ID": "2025-298A", "EPOCH": "2025-12-26T06:00:02.999808", "MEAN_MOTION": 15.77019794, "ECCENTRICITY": 0.00036244, "INCLINATION": 69.997, "RA_OF_ASC_NODE": 211.5613, "ARG_OF_PERICENTER": 271.747, "MEAN_ANOMALY": 304.0481, "EPHEMERIS_TYPE": 0, "CLASSIFICATION_TYPE": "U", "NORAD_CAT_ID": 67075, "ELEMENT_SET_NO": 999, "REV_AT_EPOCH": 314, "BSTAR": -0.012426273, "MEAN_MOTION_DOT": -0.01781913, "MEAN_MOTION_DDOT": 0}, "tle": {"line1": "1 67075U 25298A   25360.25003472 -.01781913  00000+0 -12426-1 0  9997", "line2": "2 67075  69.9970 211.5613 0003624 271.7470 304.0481 15.77019794  3147"}}, "geometry": {"type": "Point", "coordinates": [49.65749039284187, -41.78843904062673]}}, {"type": "Feature", "properties": {"norad_id": 67076, "name": "STARLINK-36240", "group": "last-30-days", "lat": -43.500626139705574, "lon": 50.87916130868468, "alt_km": 346.95513391839995, "timestamp": "2025-12-26T13:39:17.668402+00:00", "meta": {"OBJECT_NAME": "STARLINK-36240", "OBJECT_ID": "2025-298B", "EPOCH": "2025-12-26T06:00:02.999808", "MEAN_MOTION": 15.7701634, "ECCENTRICITY": 0.00033603, "INCLINATION": 69.9969, "RA_OF_ASC_NODE": 211.5587, "ARG_OF_PERICENTER": 269.6462, "MEAN_ANOMALY": 308.0842, "EPHEMERIS_TYPE": 0, "CLASSIFICATION_TYPE": "U", "NORAD_CAT_ID": 67076, "ELEMENT_SET_NO": 999, "REV_AT_EPOCH": 314, "BSTAR": -0.012394719, "MEAN_MOTION_DOT": -0.01777419, "MEAN_MOTION_DDOT": 0}, "tle": {"line1": "1 67076U 25298B   25360.25003472 -.01777419  00000+0 -12395-1 0  9999", "line2": "2 67076  69.9969 211.5587 0003360 269.6462 308.0842 15.77016340  3149"}}, "geometry": {"type": "Point", "coordinates": [50.87916130868468, -43.500626139705574]}}, {"type": "Feature", "properties": {"norad_id": 67077, "name": "STARLINK-36243", "group": "last-30-days", "lat": -45.40313820201471, "lon": 52.33361137400688, "alt_km": 346.94798891154187, "timestamp": "2025-12-26T13:39:17.668414+00:00", "meta": {"OBJECT_NAME": "STARLINK-36243", "OBJECT_ID": "2025-298C", "EPOCH": "2025-12-26T06:00:02.999808", "MEAN_MOTION": 15.77008449, "ECCENTRICITY": 0.00036013, "INCLINATION": 69.9968, "RA_OF_ASC_NODE": 211.556, "ARG_OF_PERICENTER": 272.1331, "MEAN_ANOMALY": 307.7824, "EPHEMERIS_TYPE": 0, "CLASSIFICATION_TYPE": "U", "NORAD_CAT_ID": 67077, "ELEMENT_SET_NO": 999, "REV_AT_EPOCH": 314, "BSTAR": -0.012438284, "MEAN_MOTION_DOT": -0.01782609, "MEAN_MOTION_DDOT": 0}, "tle": {"line1": "1 67077U 25298C   25360.25003472 -.01782609  00000+0 -12438-1 0  9995", "line2": "2 67077  69.9968 211.5560 0003601 272.1331 307.7824 15.77008449  3149"}}, "geometry": {"type": "Point", "coordinates": [52.33361137400688, -45.40313820201471]}}, {"type": "Feature", "properties": {"norad_id": 67078, "name": "STARLINK-36236", "group": "last-30-days", "lat": -46.98825904193197, "lon": 53.634483664690755, "alt_km": 346.94335945758394, "timestamp": "2025-12-26T13:39:17.668424+00:00", "meta": {"OBJECT_NAME": "STARLINK-36236", "OBJECT_ID": "2025-298D", "EPOCH": "2025-12-26T06:00:02.999808", "MEAN_MOTION": 15.77010817, "ECCENTRICITY": 0.00035897, "INCLINATION": 69.997, "RA_OF_ASC_NODE": 211.5538, "ARG_OF_PERICENTER": 272.0378, "MEAN_ANOMALY": 309.6995, "EPHEMERIS_TYPE": 0, "CLASSIFICATION_TYPE": "U", "NORAD_CAT_ID": 67078, "ELEMENT_SET_NO": 999, "REV_AT_EPOCH": 314, "BSTAR": -0.012417087, "MEAN_MOTION_DOT": -0.0178009, "MEAN_MOTION_DDOT": 0}, "tle": {"line1": "1 67078U 25298D   25360.25003472 -.01780090  00000+0 -12417-1 0  9995", "line2": "2 67078  69.9970 211.5538 0003589 272.0378 309.6995 15.77010817  3145"}}, "geometry": {"type": "Point", "coordinates": [53.634483664690755, -46.98825904193197]}}, {"type": "Feature", "properties": {"norad_id": 67079, "name": "STARLINK-36159", "group": "last-30-days", "lat": -48.8638071532384, "lon": 55.29592718189484, "alt_km": 346.9559536009547, "timestamp": "2025-12-26T13:39:17.668445+00:00", "meta": {"OBJECT_NAME": "STARLINK-36159", "OBJECT_ID": "2025-298E", "EPOCH": "2025-12-26T06:00:02.999808", "MEAN_MOTION": 15.76999965, "ECCENTRICITY": 0.00036642, "INCLINATION": 69.9971, "RA_OF_ASC_NODE": 211.5513, "ARG_OF_PERICENTER": 272.6614, "MEAN_ANOMALY": 311.2743, "EPHEMERIS_TYPE": 0, "CLASSIFICATION_TYPE": "U", "NORAD_CAT_ID": 67079, "ELEMENT_SET_NO": 999, "REV_AT_EPOCH": 314, "BSTAR": -0.012434248, "MEAN_MOTION_DOT": -0.01781572, "MEAN_MOTION_DDOT": 0}, "tle": {"line1": "1 67079U 25298E   25360.25003472 -.01781572  00000+0 -12434-1 0  9991", "line2": "2 67079  69.9971 211.5513 0003664 272.6614 311.2743 15.76999965  3142"}}, "geometry": {"type": "Point", "coordinates": [55.29592718189484, -48.8638071532384]}}, {"type": "Feature", "properties": {"norad_id": 67080, "name": "STARLINK-36158", "group": "last-30-days", "lat": -50.642910146240574, "lon": 57.01486915619307, "alt_km": 346.97447846608065, "timestamp": "2025-12-26T13:39:17.668456+00:00", "meta": {"OBJECT_NAME": "STARLINK-36158", "OBJECT_ID": "2025-298F", "EPOCH": "2025-12-26T06:00:02.999808", "MEAN_MOTION": 15.76995462, "ECCENTRICITY": 0.00035129, "INCLINATION": 69.9968, "RA_OF_ASC_NODE": 211.5486, "ARG_OF_PERICENTER": 269.0221, "MEAN_ANOMALY": 317.0189, "EPHEMERIS_TYPE": 0, "CLASSIFICATION_TYPE": "U", "NORAD_CAT_ID": 67080, "ELEMENT_SET_NO": 999, "REV_AT_EPOCH": 309, "BSTAR": -0.01248549, "MEAN_MOTION_DOT": -0.01787549, "MEAN_MOTION_DDOT": 0}, "tle": {"line1": "1 67080U 25298F   25360.25003472 -.01787549  00000+0 -12485-1 0  9999", "line2": "2 67080  69.9968 211.5486 0003512 269.0221 317.0189 15.76995462  3095"}}, "geometry": {"type": "Point", "coordinates": [57.01486915619307, -50.642910146240574]}}]}